{
    "links": {
        "self": "http://www.neowsapp.com/rest/v1/neo/3799882?api_key=iIulBulltgU6a56xZRHN4H3l9WmuAYTsLGpBGhQ2"
    },
    "id": "3799882",
    "neo_reference_id": "3799882",
    "name": "(2018 EV3)",
    "designation": "2018 EV3",
    "nasa_jpl_url": "http://ssd.jpl.nasa.gov/sbdb.cgi?sstr=3799882",
    "absolute_magnitude_h": 27.2,
    "estimated_diameter": {
        "kilometers": {
            "estimated_diameter_min": 0.0096506147,
            "estimated_diameter_max": 0.0215794305
        },
        "meters": {
            "estimated_diameter_min": 9.6506146958,
            "estimated_diameter_max": 21.5794304844
        },
        "miles": {
            "estimated_diameter_min": 0.0059966121,
            "estimated_diameter_max": 0.0134088323
        },
        "feet": {
            "estimated_diameter_min": 31.6621227185,
            "estimated_diameter_max": 70.7986587106
        }
    },
    "is_potentially_hazardous_asteroid": false,
    "close_approach_data": [
        {
            "close_approach_date": "2018-03-06",
            "close_approach_date_full": "2018-Mar-06 01:44",
            "epoch_date_close_approach": 1520300640000,
            "relative_velocity": {
                "kilometers_per_second": "12.7085924104",
                "kilometers_per_hour": "45750.9326775952",
                "miles_per_hour": "28427.8503629202"
            },
            "miss_distance": {
                "astronomical": "0.0051995103",
                "lunar": "2.0226095067",
                "kilometers": "777835.665923061",
                "miles": "483324.6707418018"
            },
            "orbiting_body": "Earth"
        },
        {
            "close_approach_date": "2018-03-06",
            "close_approach_date_full": "2018-Mar-06 06:03",
            "epoch_date_close_approach": 1520316180000,
            "relative_velocity": {
                "kilometers_per_second": "12.9660197709",
                "kilometers_per_hour": "46677.671175073",
                "miles_per_hour": "29003.6896254224"
            },
            "miss_distance": {
                "astronomical": "0.0063769891",
                "lunar": "2.4806487599",
                "kilometers": "953983.986373217",
                "miles": "592778.1616437146"
            },
            "orbiting_body": "Moon"
        }
    ],
    "orbital_data": {
        "orbit_id": "2",
        "orbit_determination_date": "2019-04-18 07:37:06",
        "first_observation_date": "2018-03-09",
        "last_observation_date": "2018-03-13",
        "data_arc_in_days": 4,
        "observations_used": 26,
        "orbit_uncertainty": "7",
        "minimum_orbit_intersection": ".00105783",
        "jupiter_tisserand_invariant": "3.726",
        "epoch_osculation": "2459000.5",
        "eccentricity": ".513443686434796",
        "semi_major_axis": "1.909987970335184",
        "inclination": "15.53312822645341",
        "ascending_node_longitude": "164.9283517407559",
        "orbital_period": "964.1494876048595",
        "perihelion_distance": ".9293167058001736",
        "perihelion_argument": "324.0690413766737",
        "aphelion_distance": "2.890659234870195",
        "perihelion_time": "2459119.970824324225",
        "mean_anomaly": "315.3912569475453",
        "mean_motion": ".373386082374334",
        "equinox": "J2000",
        "orbit_class": {
            "orbit_class_type": "APO",
            "orbit_class_description": "Near-Earth asteroid orbits which cross the Earth’s orbit similar to that of 1862 Apollo",
            "orbit_class_range": "a (semi-major axis) > 1.0 AU; q (perihelion) < 1.017 AU"
        }
    },
    "is_sentry_object": false
}